LEMUR-2-FINNIAN         
1 66782U 25276DX  26193.75464174  .00001734  00000+0  14177-3 0  9997
2 66782  97.5339 263.9508 0007885   9.8225 350.3152 15.00601115 23839
LEMUR-2-STARLIGHT       
1 66783U 25276DY  26193.66644495  .00003675  00000+0  30466-3 0  9999
2 66783  97.5235 263.4338 0014810  54.7591 305.5017 14.99335039 34012
LEMUR-2-TARTIFLETTE     
1 66784U 25276DZ  26193.73155905  .00003516  00000+0  29192-3 0  9999
2 66784  97.5235 263.5049 0013872  62.7426 297.5209 14.99322354 34026
LEMUR-2-VUKASIN         
1 66785U 25276EA  26194.17069174  .00002777  00000+0  22476-3 0  9997
2 66785  97.5238 264.2842 0003404  60.3374 299.8189 15.00535741 34048
LEMUR-2-HOTSPUR-TOM     
1 66786U 25276EB  26193.79254356  .00003477  00000+0  28941-3 0  9994
2 66786  97.5223 263.5388 0013783  53.6491 306.6002 14.99227481 33963
LEMUR-2-MYRA            
1 66787U 25276EC  26193.73586926  .00003624  00000+0  29064-3 0  9991
2 66787  97.5226 263.7829 0018605  61.6382 298.6715 15.00572080 34047
LEMUR-2 FIKRETDENGIZ    
1 67363U 26004A   26193.94941412  .00002520  00000+0  27684-3 0  9990
2 67363  97.8023 192.1152 0010306  62.1023 298.1237 14.88507915 27112
TWILIGHT-1 OBJECT B     
1 67364U 26004B   26193.51468494  .00000957  00000+0  11076-3 0  9998
2 67364  97.8073 191.6894 0009909  53.6882 306.5248 14.87787971 27050
LEMUR-2-MARIO-SOUSA     
1 67365U 26004C   26193.99680482  .00002679  00000+0  29239-3 0  9997
2 67365  97.7995 192.1569 0009940  63.2656 296.9577 14.88716641 27132
LEMUR-2-SONNENBLUME     
1 67367U 26004E   26193.93203072  .00001544  00000+0  17220-3 0  9996
2 67367  97.7999 192.0669 0009512  64.4716 295.7483 14.88446772 27120
LEMUR-2-WOBLER          
1 67368U 26004F   26193.92168834  .00002033  00000+0  22349-3 0  9994
2 67368  97.8046 192.2054 0009614  56.3610 303.8523 14.88688331 27126
LEMUR-2-GRAM-E-SUE      
1 67370U 26004H   26194.24975362  .00001309  00000+0  14636-3 0  9990
2 67370  97.7986 192.3963 0008703  66.1121 294.1007 14.88584233 27175
LEMUR-2-KATIE           
1 67387U 26004AA  26193.94030332  .00003162  00000+0  33168-3 0  9993
2 67387  97.8041 192.6354 0003671  39.3280 320.8204 14.90239334 27145
